STARLINK-32360          
1 61007U 24158T   26068.37780534 -.00003624  00000+0 -11030-3 0  9997
2 61007  53.1605  51.6751 0001040  81.4572 278.6547 15.30200889 85742
TRANSPORTER-12 OBJECT AZ
1 62656U 25009AZ  26068.71026235  .00016057  00000+0  54903-3 0  9991
2 62656  97.3981 151.9913 0000987  45.3581 314.7740 15.30349724 63792
